[{"OBJECT_NAME":"STARLINK-31123","OBJECT_ID":"2024-011L","EPOCH":"2026-03-09T05:45:06.050304","MEAN_MOTION":15.30193616,"ECCENTRICITY":0.00010456,"INCLINATION":53.1618,"RA_OF_ASC_NODE":15.6065,"ARG_OF_PERICENTER":65.6642,"MEAN_ANOMALY":294.4468,"EPHEMERIS_TYPE":0,"CLASSIFICATION_TYPE":"U","NORAD_CAT_ID":58775,"ELEMENT_SET_NO":999,"REV_AT_EPOCH":12020,"BSTAR":5.301985e-5,"MEAN_MOTION_DOT":1.211e-5,"MEAN_MOTION_DDOT":0},{"OBJECT_NAME":"HAWK-11C","OBJECT_ID":"2024-247E","EPOCH":"2026-03-09T12:17:35.407968","MEAN_MOTION":15.2884802,"ECCENTRICITY":0.00059001,"INCLINATION":45.0045,"RA_OF_ASC_NODE":114.8762,"ARG_OF_PERICENTER":329.704,"MEAN_ANOMALY":30.3502,"EPHEMERIS_TYPE":0,"CLASSIFICATION_TYPE":"U","NORAD_CAT_ID":62381,"ELEMENT_SET_NO":999,"REV_AT_EPOCH":6774,"BSTAR":0.00033290115,"MEAN_MOTION_DOT":9.223e-5,"MEAN_MOTION_DDOT":0}]
